{"type": "FeatureCollection", "features": [ {"type": "Feature", "properties": {"norad_id": 66589, "name": "STARLINK-35447", "group": "last-30-days", "lat": 38.48454534019797, "lon": -36.87285209407581, "alt_km": 410.079468562908, "timestamp": "2025-12-11T05:00:25.075612+00:00", "meta": {"OBJECT_NAME": "STARLINK-35447", "OBJECT_ID": "2025-270B", "EPOCH": "2025-12-10T22:00:03.000096", "MEAN_MOTION": 15.50595617, "ECCENTRICITY": 0.00019388, "INCLINATION": 42.9995, "RA_OF_ASC_NODE": 203.3914, "ARG_OF_PERICENTER": 257.6749, "MEAN_ANOMALY": 24.9254, "EPHEMERIS_TYPE": 0, "CLASSIFICATION_TYPE": "U", "NORAD_CAT_ID": 66589, "ELEMENT_SET_NO": 999, "REV_AT_EPOCH": 421, "BSTAR": -0.0013609402, "MEAN_MOTION_DOT": -0.00079427, "MEAN_MOTION_DDOT": 0}, "tle": {"line1": "1 66589U 25270B   25344.91670139 -.00079427  00000+0 -13609-2 0  9995", "line2": "2 66589  42.9995 203.3914 0001938 257.6749  24.9254 15.50595617  4214"}}, "geometry": {"type": "Point", "coordinates": [-36.87285209407581, 38.48454534019797]}}, {"type": "Feature", "properties": {"norad_id": 66590, "name": "STARLINK-35429", "group": "last-30-days", "lat": 39.144627740861466, "lon": -39.18061550119571, "alt_km": 409.99364179054373, "timestamp": "2025-12-11T05:00:25.075621+00:00", "meta": {"OBJECT_NAME": "STARLINK-35429", "OBJECT_ID": "2025-270C", "EPOCH": "2025-12-10T22:00:03.000096", "MEAN_MOTION": 15.50597064, "ECCENTRICITY": 0.00019114, "INCLINATION": 42.9998, "RA_OF_ASC_NODE": 203.3963, "ARG_OF_PERICENTER": 257.9427, "MEAN_ANOMALY": 22.7404, "EPHEMERIS_TYPE": 0, "CLASSIFICATION_TYPE": "U", "NORAD_CAT_ID": 66590, "ELEMENT_SET_NO": 999, "REV_AT_EPOCH": 421, "BSTAR": -0.0014540058, "MEAN_MOTION_DOT": -0.00084782, "MEAN_MOTION_DDOT": 0}, "tle": {"line1": "1 66590U 25270C   25344.91670139 -.00084782  00000+0 -14540-2 0  9992", "line2": "2 66590  42.9998 203.3963 0001911 257.9427  22.7404 15.50597064  4211"}}, "geometry": {"type": "Point", "coordinates": [-39.18061550119571, 39.144627740861466]}}, {"type": "Feature", "properties": {"norad_id": 66591, "name": "STARLINK-36058", "group": "last-30-days", "lat": 37.780315363415475, "lon": -34.60769557214576, "alt_km": 410.13737747569576, "timestamp": "2025-12-11T05:00:25.075631+00:00", "meta": {"OBJECT_NAME": "STARLINK-36058", "OBJECT_ID": "2025-270D", "EPOCH": "2025-12-10T22:00:03.000096", "MEAN_MOTION": 15.50596388, "ECCENTRICITY": 0.00018437, "INCLINATION": 42.9999, "RA_OF_ASC_NODE": 203.3866, "ARG_OF_PERICENTER": 259.164, "MEAN_ANOMALY": 25.3532, "EPHEMERIS_TYPE": 0, "CLASSIFICATION_TYPE": "U", "NORAD_CAT_ID": 66591, "ELEMENT_SET_NO": 999, "REV_AT_EPOCH": 410, "BSTAR": -0.001435339, "MEAN_MOTION_DOT": -0.00083707, "MEAN_MOTION_DDOT": 0}, "tle": {"line1": "1 66591U 25270D   25344.91670139 -.00083707  00000+0 -14353-2 0  9991", "line2": "2 66591  42.9999 203.3866 0001843 259.1640  25.3532 15.50596388  4107"}}, "geometry": {"type": "Point", "coordinates": [-34.60769557214576, 37.780315363415475]}}, {"type": "Feature", "properties": {"norad_id": 66592, "name": "STARLINK-36066", "group": "last-30-days", "lat": 37.03490276922997, "lon": -32.39178165498367, "alt_km": 410.2036888997518, "timestamp": "2025-12-11T05:00:25.075641+00:00", "meta": {"OBJECT_NAME": "STARLINK-36066", "OBJECT_ID": "2025-270E", "EPOCH": "2025-12-10T22:00:03.000096", "MEAN_MOTION": 15.50590607, "ECCENTRICITY": 0.00018786, "INCLINATION": 42.9999, "RA_OF_ASC_NODE": 203.3822, "ARG_OF_PERICENTER": 256.3542, "MEAN_ANOMALY": 30.0788, "EPHEMERIS_TYPE": 0, "CLASSIFICATION_TYPE": "U", "NORAD_CAT_ID": 66592, "ELEMENT_SET_NO": 999, "REV_AT_EPOCH": 400, "BSTAR": -0.001204177, "MEAN_MOTION_DOT": -0.00070385, "MEAN_MOTION_DDOT": 0}, "tle": {"line1": "1 66592U 25270E   25344.91670139 -.00070385  00000+0 -12042-2 0  9993", "line2": "2 66592  42.9999 203.3822 0001878 256.3542  30.0788 15.50590607  4001"}}, "geometry": {"type": "Point", "coordinates": [-32.39178165498367, 37.03490276922997]}}, {"type": "Feature", "properties": {"norad_id": 66593, "name": "STARLINK-36031", "group": "last-30-days", "lat": 36.26372160378313, "lon": -30.261144142025195, "alt_km": 409.87068364266725, "timestamp": "2025-12-11T05:00:25.075653+00:00", "meta": {"OBJECT_NAME": "STARLINK-36031", "OBJECT_ID": "2025-270F", "EPOCH": "2025-12-10T22:00:03.000096", "MEAN_MOTION": 15.5053576, "ECCENTRICITY": 0.00015555, "INCLINATION": 42.9996, "RA_OF_ASC_NODE": 203.3771, "ARG_OF_PERICENTER": 239.0063, "MEAN_ANOMALY": 49.3312, "EPHEMERIS_TYPE": 0, "CLASSIFICATION_TYPE": "U", "NORAD_CAT_ID": 66593, "ELEMENT_SET_NO": 999, "REV_AT_EPOCH": 410, "BSTAR": 0.00054154613, "MEAN_MOTION_DOT": 0.00031507, "MEAN_MOTION_DDOT": 0}, "tle": {"line1": "1 66593U 25270F   25344.91670139  .00031507  00000+0  54155-3 0  9997", "line2": "2 66593  42.9996 203.3771 0001555 239.0063  49.3312 15.50535760  4106"}}, "geometry": {"type": "Point", "coordinates": [-30.261144142025195, 36.26372160378313]}}, {"type": "Feature", "properties": {"norad_id": 66594, "name": "STARLINK-36032", "group": "last-30-days", "lat": 35.41988996878715, "lon": -28.082821388585373, "alt_km": 410.415812830508, "timestamp": "2025-12-11T05:00:25.075663+00:00", "meta": {"OBJECT_NAME": "STARLINK-36032", "OBJECT_ID": "2025-270G", "EPOCH": "2025-12-10T22:00:03.000096", "MEAN_MOTION": 15.50598247, "ECCENTRICITY": 0.00018873, "INCLINATION": 42.9998, "RA_OF_ASC_NODE": 203.3726, "ARG_OF_PERICENTER": 256.6641, "MEAN_ANOMALY": 33.6008, "EPHEMERIS_TYPE": 0, "CLASSIFICATION_TYPE": "U", "NORAD_CAT_ID": 66594, "ELEMENT_SET_NO": 999, "REV_AT_EPOCH": 384, "BSTAR": -0.0014467975, "MEAN_MOTION_DOT": -0.00084371, "MEAN_MOTION_DDOT": 0}, "tle": {"line1": "1 66594U 25270G   25344.91670139 -.00084371  00000+0 -14468-2 0  9999", "line2": "2 66594  42.9998 203.3726 0001887 256.6641  33.6008 15.50598247  3841"}}, "geometry": {"type": "Point", "coordinates": [-28.082821388585373, 35.41988996878715]}}, {"type": "Feature", "properties": {"norad_id": 66595, "name": "STARLINK-35711", "group": "last-30-days", "lat": 34.5922418305624, "lon": -26.081218099724286, "alt_km": 410.061929830129, "timestamp": "2025-12-11T05:00:25.075672+00:00", "meta": {"OBJECT_NAME": "STARLINK-35711", "OBJECT_ID": "2025-270H", "EPOCH": "2025-12-10T22:00:03.000096", "MEAN_MOTION": 15.50473176, "ECCENTRICITY": 0.00015324, "INCLINATION": 42.9996, "RA_OF_ASC_NODE": 203.3667, "ARG_OF_PERICENTER": 233.4172, "MEAN_ANOMALY": 58.7661, "EPHEMERIS_TYPE": 0, "CLASSIFICATION_TYPE": "U", "NORAD_CAT_ID": 66595, "ELEMENT_SET_NO": 999, "REV_AT_EPOCH": 421, "BSTAR": 0.0015227586, "MEAN_MOTION_DOT": 0.00089682, "MEAN_MOTION_DDOT": 0}, "tle": {"line1": "1 66595U 25270H   25344.91670139  .00089682  00000+0  15228-2 0  9993", "line2": "2 66595  42.9996 203.3667 0001532 233.4172  58.7661 15.50473176  4211"}}, "geometry": {"type": "Point", "coordinates": [-26.081218099724286, 34.5922418305624]}}, {"type": "Feature", "properties": {"norad_id": 66596, "name": "STARLINK-35811", "group": "last-30-days", "lat": 33.661305019127965, "lon": -23.960126303540157, "alt_km": 410.6552442126367, "timestamp": "2025-12-11T05:00:25.075682+00:00", "meta": {"OBJECT_NAME": "STARLINK-35811", "OBJECT_ID": "2025-270J", "EPOCH": "2025-12-10T22:00:03.000096", "MEAN_MOTION": 15.50540188, "ECCENTRICITY": 0.00020205, "INCLINATION": 42.9995, "RA_OF_ASC_NODE": 203.363, "ARG_OF_PERICENTER": 259.4499, "MEAN_ANOMALY": 34.6583, "EPHEMERIS_TYPE": 0, "CLASSIFICATION_TYPE": "U", "NORAD_CAT_ID": 66596, "ELEMENT_SET_NO": 999, "REV_AT_EPOCH": 421, "BSTAR": 0.0010769046, "MEAN_MOTION_DOT": 0.00063261, "MEAN_MOTION_DDOT": 0}, "tle": {"line1": "1 66596U 25270J   25344.91670139  .00063261  00000+0  10769-2 0  9994", "line2": "2 66596  42.9995 203.3630 0002020 259.4499  34.6583 15.50540188  4218"}}, "geometry": {"type": "Point", "coordinates": [-23.960126303540157, 33.661305019127965]}}, {"type": "Feature", "properties": {"norad_id": 66597, "name": "STARLINK-35820", "group": "last-30-days", "lat": 32.72728181910963, "lon": -21.954337644136004, "alt_km": 410.68935005692856, "timestamp": "2025-12-11T05:00:25.075692+00:00", "meta": {"OBJECT_NAME": "STARLINK-35820", "OBJECT_ID": "2025-270K", "EPOCH": "2025-12-10T22:00:03.000096", "MEAN_MOTION": 15.50602117, "ECCENTRICITY": 0.00017886, "INCLINATION": 42.9997, "RA_OF_ASC_NODE": 203.3576, "ARG_OF_PERICENTER": 255.7197, "MEAN_ANOMALY": 40.2916, "EPHEMERIS_TYPE": 0, "CLASSIFICATION_TYPE": "U", "NORAD_CAT_ID": 66597, "ELEMENT_SET_NO": 999, "REV_AT_EPOCH": 421, "BSTAR": -0.0014976471, "MEAN_MOTION_DOT": -0.00087303, "MEAN_MOTION_DDOT": 0}, "tle": {"line1": "1 66597U 25270K   25344.91670139 -.00087303  00000+0 -14976-2 0  9994", "line2": "2 66597  42.9997 203.3576 0001788 255.7197  40.2916 15.50602117  4218"}}, "geometry": {"type": "Point", "coordinates": [-21.954337644136004, 32.72728181910963]}}, {"type": "Feature", "properties": {"norad_id": 66598, "name": "STARLINK-35981", "group": "last-30-days", "lat": 31.784858151777296, "lon": -20.03657873662038, "alt_km": 410.46670254018136, "timestamp": "2025-12-11T05:00:25.075704+00:00", "meta": {"OBJECT_NAME": "STARLINK-35981", "OBJECT_ID": "2025-270L", "EPOCH": "2025-12-10T22:00:03.000096", "MEAN_MOTION": 15.50534674, "ECCENTRICITY": 0.00015826, "INCLINATION": 42.9997, "RA_OF_ASC_NODE": 203.3526, "ARG_OF_PERICENTER": 240.8771, "MEAN_ANOMALY": 57.0454, "EPHEMERIS_TYPE": 0, "CLASSIFICATION_TYPE": "U", "NORAD_CAT_ID": 66598, "ELEMENT_SET_NO": 999, "REV_AT_EPOCH": 394, "BSTAR": 0.00061308902, "MEAN_MOTION_DOT": 0.00035733, "MEAN_MOTION_DDOT": 0}, "tle": {"line1": "1 66598U 25270L   25344.91670139  .00035733  00000+0  61309-3 0  9996", "line2": "2 66598  42.9997 203.3526 0001582 240.8771  57.0454 15.50534674  3943"}}, "geometry": {"type": "Point", "coordinates": [-20.03657873662038, 31.784858151777296]}}]}